start=new Date('2022-08-27T00:00:00.000Z').valueOf();
sats=[{"CLASSIFICATION_TYPE":"U","EPOCH":"2022-08-26T17:16:40.951488","MEAN_MOTION":"15.06395833","REF_FRAME":"TEME","OBJECT_TYPE":"PAYLOAD","ECCENTRICITY":"0.00014140","CENTER_NAME":"EARTH","APOAPSIS":"548.206","MEAN_ELEMENT_THEORY":"SGP4","MEAN_ANOMALY":"282.0633","FILE":"3548620","SITE":"AFETR","DECAY_DATE":null,"PERIOD":"95.592","ELEMENT_SET_NO":"999","TIME_SYSTEM":"UTC","NORAD_CAT_ID":"46752","OBJECT_NAME":"STARLINK-1921","INCLINATION":"53.0577","SEMIMAJOR_AXIS":"6925.361","MEAN_MOTION_DOT":"-0.00000004","TLE_LINE2":"2 46752  53.0577 357.0015 0001414  78.0515 282.0633 15.06395833102099","RA_OF_ASC_NODE":"357.0015","EPHEMERIS_TYPE":"0","MEAN_MOTION_DDOT":"0.0000000000000","GP_ID":"211077268","RCS_SIZE":"LARGE","PERIAPSIS":"546.247","OBJECT_ID":"2020-074P","REV_AT_EPOCH":"10209","ARG_OF_PERICENTER":"78.0515","COUNTRY_CODE":"US","TLE_LINE1":"1 46752U 20074P   22238.71991842 -.00000004  00000-0  18606-4 0  9995","LAUNCH_DATE":"2020-10-24","BSTAR":"0.00001860600000"},{"CLASSIFICATION_TYPE":"U","EPOCH":"2022-08-26T19:40:00.362496","REF_FRAME":"TEME","MEAN_MOTION":"15.06395051","ECCENTRICITY":"0.00011490","OBJECT_TYPE":"PAYLOAD","CENTER_NAME":"EARTH","APOAPSIS":"548.024","MEAN_ELEMENT_THEORY":"SGP4","SITE":"AFETR","FILE":"3548620","DECAY_DATE":null,"MEAN_ANOMALY":"294.0464","PERIOD":"95.592","ELEMENT_SET_NO":"999","TIME_SYSTEM":"UTC","NORAD_CAT_ID":"46753","OBJECT_NAME":"STARLINK-1922","INCLINATION":"53.0572","MEAN_MOTION_DOT":"0.00002256","SEMIMAJOR_AXIS":"6925.364","TLE_LINE2":"2 46753  53.0572 356.5628 0001149  66.0645 294.0464 15.06395051102115","MEAN_MOTION_DDOT":"0.0000000000000","RA_OF_ASC_NODE":"356.5628","EPHEMERIS_TYPE":"0","GP_ID":"211078012","RCS_SIZE":"LARGE","REV_AT_EPOCH":"10211","PERIAPSIS":"546.433","OBJECT_ID":"2020-074Q","ARG_OF_PERICENTER":"66.0645","COUNTRY_CODE":"US","TLE_LINE1":"1 46753U 20074Q   22238.81944864  .00002256  00000-0  17032-3 0  9990","BSTAR":"0.00017032000000","LAUNCH_DATE":"2020-10-24"},{"TLE_LINE2":"2 46754  53.0560 357.1171 0001129 104.8268 255.2846 15.06392027102093","GP_ID":"211076267","EPHEMERIS_TYPE":"0","RA_OF_ASC_NODE":"357.1171","MEAN_MOTION_DDOT":"0.0000000000000","NORAD_CAT_ID":"46754","SEMIMAJOR_AXIS":"6925.373","MEAN_MOTION_DOT":"-0.00000005","OBJECT_NAME":"STARLINK-1923","INCLINATION":"53.0560","TLE_LINE1":"1 46754U 20074R   22238.69411384 -.00000005  00000-0  18538-4 0  9997","COUNTRY_CODE":"US","ARG_OF_PERICENTER":"104.8268","LAUNCH_DATE":"2020-10-24","BSTAR":"0.00001853800000","REV_AT_EPOCH":"10209","PERIAPSIS":"546.456","OBJECT_ID":"2020-074R","RCS_SIZE":"LARGE","ECCENTRICITY":"0.00011290","OBJECT_TYPE":"PAYLOAD","APOAPSIS":"548.020","CENTER_NAME":"EARTH","EPOCH":"2022-08-26T16:39:31.435776","CLASSIFICATION_TYPE":"U","REF_FRAME":"TEME","MEAN_MOTION":"15.06392027","ELEMENT_SET_NO":"999","PERIOD":"95.593","TIME_SYSTEM":"UTC","MEAN_ELEMENT_THEORY":"SGP4","MEAN_ANOMALY":"255.2846","SITE":"AFETR","FILE":"3548620","DECAY_DATE":null},{"GP_ID":"211076517","MEAN_MOTION_DDOT":"0.0000000000000","EPHEMERIS_TYPE":"0","RA_OF_ASC_NODE":"1.2004","TLE_LINE2":"2 46755  53.0563   1.2004 0001462  56.2008 303.9120 15.06398336102052","MEAN_MOTION_DOT":"-0.00001069","SEMIMAJOR_AXIS":"6925.354","INCLINATION":"53.0563","OBJECT_NAME":"STARLINK-1924","NORAD_CAT_ID":"46755","BSTAR":"-0.00005286800000","LAUNCH_DATE":"2020-10-24","COUNTRY_CODE":"US","TLE_LINE1":"1 46755U 20074S   22238.89822092 -.00001069  00000-0 -52868-4 0  9998","ARG_OF_PERICENTER":"56.2008","PERIAPSIS":"546.206","REV_AT_EPOCH":"10205","OBJECT_ID":"2020-074S","RCS_SIZE":"LARGE","APOAPSIS":"548.231","CENTER_NAME":"EARTH","OBJECT_TYPE":"PAYLOAD","ECCENTRICITY":"0.00014620","REF_FRAME":"TEME","MEAN_MOTION":"15.06398336","EPOCH":"2022-08-26T21:33:26.287488","CLASSIFICATION_TYPE":"U","TIME_SYSTEM":"UTC","ELEMENT_SET_NO":"999","PERIOD":"95.592","FILE":"3548620","DECAY_DATE":null,"SITE":"AFETR","MEAN_ANOMALY":"303.9120","MEAN_ELEMENT_THEORY":"SGP4"},{"MEAN_MOTION_DDOT":"0.0000000000000","RA_OF_ASC_NODE":"2.3615","EPHEMERIS_TYPE":"0","GP_ID":"211077769","TLE_LINE2":"2 46756  53.0555   2.3615 0001433  74.9302 285.1846 15.06391321102026","OBJECT_NAME":"STARLINK-1925","INCLINATION":"53.0555","MEAN_MOTION_DOT":"0.00001504","SEMIMAJOR_AXIS":"6925.375","NORAD_CAT_ID":"46756","BSTAR":"0.00011990000000","LAUNCH_DATE":"2020-10-24","ARG_OF_PERICENTER":"74.9302","COUNTRY_CODE":"US","TLE_LINE1":"1 46756U 20074T   22238.72871964  .00001504  00000-0  11990-3 0  9995","RCS_SIZE":"LARGE","PERIAPSIS":"546.248","OBJECT_ID":"2020-074T","REV_AT_EPOCH":"10202","CENTER_NAME":"EARTH","APOAPSIS":"548.233","OBJECT_TYPE":"PAYLOAD","ECCENTRICITY":"0.00014330","REF_FRAME":"TEME","MEAN_MOTION":"15.06391321","CLASSIFICATION_TYPE":"U","EPOCH":"2022-08-26T17:29:21.376896","TIME_SYSTEM":"UTC","PERIOD":"95.593","ELEMENT_SET_NO":"999","FILE":"3548620","SITE":"AFETR","DECAY_DATE":null,"MEAN_ANOMALY":"285.1846","MEAN_ELEMENT_THEORY":"SGP4"},{"INCLINATION":"53.0553","OBJECT_NAME":"STARLINK-1926","SEMIMAJOR_AXIS":"6925.334","MEAN_MOTION_DOT":"0.00000238","NORAD_CAT_ID":"46757","RA_OF_ASC_NODE":"2.1384","EPHEMERIS_TYPE":"0","MEAN_MOTION_DDOT":"0.0000000000000","GP_ID":"211077512","TLE_LINE2":"2 46757  53.0553   2.1384 0001643  54.2351 305.8791 15.06404658102021","RCS_SIZE":"LARGE","PERIAPSIS":"546.061","OBJECT_ID":"2020-074U","REV_AT_EPOCH":"10202","LAUNCH_DATE":"2020-10-24","BSTAR":"0.00003488200000","ARG_OF_PERICENTER":"54.2351","TLE_LINE1":"1 46757U 20074U   22238.74343842  .00000238  00000-0  34882-4 0  9996","COUNTRY_CODE":"US","REF_FRAME":"TEME","MEAN_MOTION":"15.06404658","CLASSIFICATION_TYPE":"U","EPOCH":"2022-08-26T17:50:33.079488","CENTER_NAME":"EARTH","APOAPSIS":"548.337","OBJECT_TYPE":"PAYLOAD","ECCENTRICITY":"0.00016430","MEAN_ANOMALY":"305.8791","FILE":"3548620","SITE":"AFETR","DECAY_DATE":null,"MEAN_ELEMENT_THEORY":"SGP4","TIME_SYSTEM":"UTC","PERIOD":"95.592","ELEMENT_SET_NO":"999"},{"PERIOD":"95.592","ELEMENT_SET_NO":"999","TIME_SYSTEM":"UTC","MEAN_ELEMENT_THEORY":"SGP4","MEAN_ANOMALY":"285.2932","SITE":"AFETR","FILE":"3548620","DECAY_DATE":null,"OBJECT_TYPE":"PAYLOAD","ECCENTRICITY":"0.00014830","CENTER_NAME":"EARTH","APOAPSIS":"548.222","CLASSIFICATION_TYPE":"U","EPOCH":"2022-08-26T17:55:48.909504","REF_FRAME":"TEME","MEAN_MOTION":"15.06405997","ARG_OF_PERICENTER":"74.8221","TLE_LINE1":"1 46758U 20074V   22238.74709386  .00002987  00000-0  21930-3 0  9998","COUNTRY_CODE":"US","LAUNCH_DATE":"2020-10-24","BSTAR":"0.00021930000000","RCS_SIZE":"LARGE","PERIAPSIS":"546.168","OBJECT_ID":"2020-074V","REV_AT_EPOCH":"10203","TLE_LINE2":"2 46758  53.0557   1.8748 0001483  74.8221 285.2932 15.06405997102038","EPHEMERIS_TYPE":"0","RA_OF_ASC_NODE":"1.8748","MEAN_MOTION_DDOT":"0.0000000000000","GP_ID":"211076768","NORAD_CAT_ID":"46758","INCLINATION":"53.0557","OBJECT_NAME":"STARLINK-1928","SEMIMAJOR_AXIS":"6925.330","MEAN_MOTION_DOT":"0.00002987"},{"INCLINATION":"53.0549","OBJECT_NAME":"STARLINK-1833","MEAN_MOTION_DOT":"0.00001584","SEMIMAJOR_AXIS":"6925.360","NORAD_CAT_ID":"46759","MEAN_MOTION_DDOT":"0.0000000000000","RA_OF_ASC_NODE":"11.9199","EPHEMERIS_TYPE":"0","GP_ID":"211077018","TLE_LINE2":"2 46759  53.0549  11.9199 0001344  77.5490 282.5650 15.06396168101884","RCS_SIZE":"LARGE","PERIAPSIS":"546.295","OBJECT_ID":"2020-074W","REV_AT_EPOCH":"10188","BSTAR":"0.00012519000000","LAUNCH_DATE":"2020-10-24","ARG_OF_PERICENTER":"77.5490","COUNTRY_CODE":"US","TLE_LINE1":"1 46759U 20074W   22238.74249997  .00001584  00000-0  12519-3 0  9991","MEAN_MOTION":"15.06396168","REF_FRAME":"TEME","CLASSIFICATION_TYPE":"U","EPOCH":"2022-08-26T17:49:11.997408","CENTER_NAME":"EARTH","APOAPSIS":"548.156","OBJECT_TYPE":"PAYLOAD","ECCENTRICITY":"0.00013440","SITE":"AFETR","FILE":"3548620","DECAY_DATE":null,"MEAN_ANOMALY":"282.5650","MEAN_ELEMENT_THEORY":"SGP4","TIME_SYSTEM":"UTC","PERIOD":"95.592","ELEMENT_SET_NO":"999"},{"LAUNCH_DATE":"2020-10-24","BSTAR":"0.00007498100000","COUNTRY_CODE":"US","TLE_LINE1":"1 46760U 20074X   22238.75356008  .00000835  00000-0  74981-4 0  9996","ARG_OF_PERICENTER":"67.0344","PERIAPSIS":"546.304","OBJECT_ID":"2020-074X","REV_AT_EPOCH":"10189","RCS_SIZE":"LARGE","GP_ID":"211077269","RA_OF_ASC_NODE":"11.8712","EPHEMERIS_TYPE":"0","MEAN_MOTION_DDOT":"0.0000000000000","TLE_LINE2":"2 46760  53.0554  11.8712 0001358  67.0344 293.0788 15.06389925101892","SEMIMAJOR_AXIS":"6925.379","MEAN_MOTION_DOT":"0.00000835","INCLINATION":"53.0554","OBJECT_NAME":"STARLINK-1896","NORAD_CAT_ID":"46760","TIME_SYSTEM":"UTC","ELEMENT_SET_NO":"999","PERIOD":"95.593","MEAN_ANOMALY":"293.0788","FILE":"3548620","DECAY_DATE":null,"SITE":"AFETR","MEAN_ELEMENT_THEORY":"SGP4","APOAPSIS":"548.185","CENTER_NAME":"EARTH","ECCENTRICITY":"0.00013580","OBJECT_TYPE":"PAYLOAD","REF_FRAME":"TEME","MEAN_MOTION":"15.06389925","EPOCH":"2022-08-26T18:05:07.590912","CLASSIFICATION_TYPE":"U"},{"OBJECT_TYPE":"PAYLOAD","ECCENTRICITY":"0.00016090","APOAPSIS":"432.969","CENTER_NAME":"EARTH","EPOCH":"2022-08-26T09:51:38.191680","CLASSIFICATION_TYPE":"U","REF_FRAME":"TEME","MEAN_MOTION":"15.44832293","ELEMENT_SET_NO":"999","PERIOD":"93.214","TIME_SYSTEM":"UTC","MEAN_ELEMENT_THEORY":"SGP4","MEAN_ANOMALY":"288.8464","FILE":"3548418","DECAY_DATE":null,"SITE":"AFETR","TLE_LINE2":"2 46763  53.0543 317.4430 0001609  71.2716 288.8464 15.44832293102633","GP_ID":"211048238","EPHEMERIS_TYPE":"0","RA_OF_ASC_NODE":"317.4430","MEAN_MOTION_DDOT":"0.0000000000000","NORAD_CAT_ID":"46763","SEMIMAJOR_AXIS":"6810.008","MEAN_MOTION_DOT":"0.00088023","INCLINATION":"53.0543","OBJECT_NAME":"STARLINK-1902","COUNTRY_CODE":"US","TLE_LINE1":"1 46763U 20074AA  22238.41085870  .00088023  00000-0  18359-2 0  9998","ARG_OF_PERICENTER":"71.2716","LAUNCH_DATE":"2020-10-24","BSTAR":"0.00183590000000","PERIAPSIS":"430.777","OBJECT_ID":"2020-074AA","REV_AT_EPOCH":"10263","RCS_SIZE":"LARGE"}];
